{
  "norad_id": 67855,
  "name": "STARLINK-36838",
  "history": [
    {
      "epoch": "2026-03-28T22:00:01.999584Z",
      "apogee_km": 397.478814094412,
      "perigee_km": 395.9933554218478,
      "latitude_deg": -42.357800783602826,
      "longitude_deg": -83.66799426326779,
      "height_km": 411.48253144666137,
      "semi_major_axis_km": 6774.873084758129,
      "eccentricity": 0.00010963,
      "inclination_deg": 53.16,
      "raan_deg": 115.4581,
      "arg_perigee_deg": 88.3782,
      "mean_anomaly_deg": 214.6342,
      "mean_motion_rev_day": 15.56865218
    },
    {
      "epoch": "2026-03-29T04:00:01.999584Z",
      "apogee_km": 400.5224360605134,
      "perigee_km": 398.81713987266085,
      "latitude_deg": -52.96807019826136,
      "longitude_deg": 128.6099874356368,
      "height_km": 418.91470226077143,
      "semi_major_axis_km": 6777.806787966587,
      "eccentricity": 0.0001258,
      "inclination_deg": 53.1596,
      "raan_deg": 114.2509,
      "arg_perigee_deg": 91.7991,
      "mean_anomaly_deg": 172.7272,
      "mean_motion_rev_day": 15.55854518
    },
    {
      "epoch": "2026-03-30T04:00:01.999584Z",
      "apogee_km": 412.8516745758834,
      "perigee_km": 410.7970322703377,
      "latitude_deg": 51.88447669983631,
      "longitude_deg": -29.861641995227927,
      "height_km": 417.2432183966589,
      "semi_major_axis_km": 6789.96135342311,
      "eccentricity": 0.0001513,
      "inclination_deg": 53.161,
      "raan_deg": 109.4377,
      "arg_perigee_deg": 64.2875,
      "mean_anomaly_deg": 36.8864,
      "mean_motion_rev_day": 15.51678735
    },
    {
      "epoch": "2026-03-30T06:00:02.000160Z",
      "apogee_km": 413.9126534668785,
      "perigee_km": 411.8980228468399,
      "latitude_deg": -21.414337560541554,
      "longitude_deg": 28.374868263719435,
      "height_km": 419.6697663746561,
      "semi_major_axis_km": 6791.042338156859,
      "eccentricity": 0.00014833,
      "inclination_deg": 53.1592,
      "raan_deg": 109.0385,
      "arg_perigee_deg": 69.9241,
      "mean_anomaly_deg": 136.9613,
      "mean_motion_rev_day": 15.5130826
    },
    {
      "epoch": "2026-03-30T14:00:03.000384Z",
      "apogee_km": 418.76696575758433,
      "perigee_km": 416.83243441653667,
      "latitude_deg": -53.29309781087891,
      "longitude_deg": -22.637164351750314,
      "height_km": 437.19088552056246,
      "semi_major_axis_km": 6795.93670008706,
      "eccentricity": 0.00014233,
      "inclination_deg": 53.1584,
      "raan_deg": 107.4422,
      "arg_perigee_deg": 62.0772,
      "mean_anomaly_deg": 206.6713,
      "mean_motion_rev_day": 15.49632708
    },
    {
      "epoch": "2026-03-30T22:00:00.999936Z",
      "apogee_km": 419.1768156420694,
      "perigee_km": 417.98358397047105,
      "latitude_deg": -24.573733530841473,
      "longitude_deg": -72.37682427990076,
      "height_km": 425.9402920780439,
      "semi_major_axis_km": 6796.7171998062695,
      "eccentricity": 8.778e-05,
      "inclination_deg": 53.1616,
      "raan_deg": 105.8461,
      "arg_perigee_deg": 82.4514,
      "mean_anomaly_deg": 246.5137,
      "mean_motion_rev_day": 15.49365788
    },
    {
      "epoch": "2026-03-31T20:00:01.999008Z",
      "apogee_km": 430.73001617088084,
      "perigee_km": 428.942242427127,
      "latitude_deg": 29.957215869389476,
      "longitude_deg": -2.312614742793828,
      "height_km": 430.7549182796549,
      "semi_major_axis_km": 6807.973129299004,
      "eccentricity": 0.0001313,
      "inclination_deg": 53.1637,
      "raan_deg": 101.4753,
      "arg_perigee_deg": 68.567,
      "mean_anomaly_deg": 329.9141,
      "mean_motion_rev_day": 15.45524922
    }
  ]
}